CSS (TIANHE)            
1 48274U 21035A   24120.81778971  .00040444  00000+0  43919-3 0  9997
2 48274  41.4711  18.5724 0003843 274.2053 156.6210 15.62712446171528
